LINGQIAO VIDEO A        
1 40959U 15057B   26159.82779501  .00001097  00000+0  16081-3 0  9992
2 40959  97.6625 155.0423 0015473 300.3812  59.5869 14.77383081574179
LINGQIAO VIDEO B        
1 40960U 15057C   26159.87279451  .00000526  00000+0  80428-4 0  9991
2 40960  97.6591 156.2507 0015606 300.1979  59.7686 14.77487508574223
JILIN-1                 
1 40961U 15057D   26159.82234898  .00000867  00000+0  12628-3 0  9997
2 40961  97.6506 159.6045 0015446 293.0726  66.8857 14.78146909574379
FOX-1A (AO-85)          
1 40967U 15058D   26159.76689639  .00003039  00000+0  27655-3 0  9994
2 40967  64.7758 305.1507 0129970  59.8929 301.4993 14.90929725112311
SINOD-D 1               
1 40968U 15058E   26159.72149155  .00003894  00000+0  31553-3 0  9996
2 40968  64.7760 285.4228 0118557  56.4584 304.7786 14.95852167115391
ELEKTRO-L 2             
1 41105U 15074A   26159.05543303 -.00000103  00000+0  00000+0 0  9997
2 41105   6.6705  70.6343 0001134 284.8984 266.3917  1.00272046 38414
DAMPE                   
1 41173U 15078A   26159.86661169  .00001386  00000+0  49141-4 0  9993
2 41173  97.4563 165.2928 0013713 102.7684 257.5091 15.30764246583270
ORBCOMM FM114           
1 41179U 15081A   26159.41765644  .00000490  00000+0  13985-3 0  9998
2 41179  47.0058  43.4650 0001977 170.6189 189.4734 14.58848434556478
ORBCOMM FM110           
1 41182U 15081D   26159.40617106  .00000743  00000+0  19351-3 0  9994
2 41182  47.0028  42.9609 0002852  26.3800 333.7231 14.58866539556345
ORBCOMM FM112           
1 41184U 15081F   26158.69180097  .00000819  00000+0  20932-3 0  9991
2 41184  47.0001 315.1475 0003123 175.6095 184.4819 14.58890878557561
ORBCOMM FM113           
1 41185U 15081G   26159.14754797  .00000505  00000+0  14299-3 0  9998
2 41185  47.0018 313.3644 0001738 188.1874 171.8983 14.58849184557614
ORBCOMM FM108           
1 41187U 15081J   26159.45245002  .00000548  00000+0  15217-3 0  9996
2 41187  47.0040 223.4955 0002510 184.4862 175.6002 14.58862136558800
ORBCOMM FM117           
1 41188U 15081K   26158.87004529  .00000590  00000+0  16110-3 0  9999
2 41188  47.0005 224.8856 0002980 184.7848 175.3010 14.58857943558766
ORBCOMM FM116           
1 41189U 15081L   26158.71361229  .00000857  00000+0  21737-3 0  9993
2 41189  47.0035 315.4145 0001121   3.5235 356.5659 14.58869594557555
HORYU-4                 
1 41340U 16012D   26158.66010672  .00317249  00000+0  10211-2 0  9994
2 41340  30.9848 148.6331 0002832 206.9121 153.1392 15.89027763569291
ZIYUAN 3-02 (ZY 3-02)   
1 41556U 16033A   26159.83701311  .00005584  00000+0  25152-3 0  9990
2 41556  97.3835 235.7709 0011603 323.0631  36.9805 15.21402253556710
CARTOSAT-2C             
1 41599U 16040A   26159.89343544  .00003762  00000+0  18153-3 0  9990
2 41599  97.4485 219.9853 0009890 157.4344 202.7327 15.19251827552453
LAPAN-A3                
1 41603U 16040E   26159.83652220  .00003565  00000+0  11379-3 0  9998
2 41603  97.1488 156.2570 0011755  52.7905 307.4409 15.33052724553536
GAOFEN-3                
1 41727U 16049A   26159.89736685 -.00000037  00000+0  20309-5 0  9995
2 41727  98.4017 167.8086 0001236 100.0528 260.0802 14.42214094517457
CAS-2T & KS-1Q          
1 41847U 16066G   26159.79065959  .00001710  00000+0  24711-3 0  9992
2 41847  98.3822 235.6228 0342480 154.8869 206.9427 14.44666773503587
YUNHAI-1 01             
1 41857U 16068A   26159.85564468  .00000358  00000+0  14781-3 0  9994
2 41857  98.5837 170.9404 0006470  63.2061 296.9784 14.32699767500630
RESOURCESAT-2A          
1 41877U 16074A   26159.83608248  .00000142  00000+0  84800-4 0  9997
2 41877  98.7520 233.4086 0003339  98.9623 261.1932 14.21613615493113
TANSAT                  
1 41898U 16081A   26159.81859567  .00000379  00000+0  89505-4 0  9997
2 41898  98.5369 159.8290 0020159 339.0087  21.0282 14.59944094503409
JILIN-1 03              
1 41914U 17002B   26159.84651005  .00012706  00000+0  30607-3 0  9995
2 41914  97.1953 167.0498 0005700 180.7620 179.3619 15.41373035520573
CARTOSAT-2D             
1 41948U 17008A   26159.85978995  .00002125  00000+0  10397-3 0  9997
2 41948  97.4107 219.3209 0003566 270.5641  89.5185 15.19265981516316
